{
    "links": {
        "self": "http://www.neowsapp.com/rest/v1/neo/3739962?api_key=iIulBulltgU6a56xZRHN4H3l9WmuAYTsLGpBGhQ2"
    },
    "id": "3739962",
    "neo_reference_id": "3739962",
    "name": "(2016 AN164)",
    "designation": "2016 AN164",
    "nasa_jpl_url": "http://ssd.jpl.nasa.gov/sbdb.cgi?sstr=3739962",
    "absolute_magnitude_h": 30.4,
    "estimated_diameter": {
        "kilometers": {
            "estimated_diameter_min": 0.0022108281,
            "estimated_diameter_max": 0.0049435619
        },
        "meters": {
            "estimated_diameter_min": 2.2108281036,
            "estimated_diameter_max": 4.9435619262
        },
        "miles": {
            "estimated_diameter_min": 0.0013737445,
            "estimated_diameter_max": 0.003071786
        },
        "feet": {
            "estimated_diameter_min": 7.2533732754,
            "estimated_diameter_max": 16.2190357099
        }
    },
    "is_potentially_hazardous_asteroid": false,
    "close_approach_data": [
        {
            "close_approach_date": "2001-06-15",
            "close_approach_date_full": "2001-Jun-15 13:57",
            "epoch_date_close_approach": 992613420000,
            "relative_velocity": {
                "kilometers_per_second": "15.5723579872",
                "kilometers_per_hour": "56060.4887538667",
                "miles_per_hour": "34833.8075815346"
            },
            "miss_distance": {
                "astronomical": "0.086694645",
                "lunar": "33.724216905",
                "kilometers": "12969334.23240615",
                "miles": "8058770.60185887"
            },
            "orbiting_body": "Mars"
        },
        {
            "close_approach_date": "2016-01-14",
            "close_approach_date_full": "2016-Jan-14 14:55",
            "epoch_date_close_approach": 1452783300000,
            "relative_velocity": {
                "kilometers_per_second": "13.1802085339",
                "kilometers_per_hour": "47448.7507222016",
                "miles_per_hour": "29482.8084695813"
            },
            "miss_distance": {
                "astronomical": "0.0002476019",
                "lunar": "0.0963171391",
                "kilometers": "37040.716847953",
                "miles": "23016.0341816314"
            },
            "orbiting_body": "Earth"
        },
        {
            "close_approach_date": "2016-01-14",
            "close_approach_date_full": "2016-Jan-14 16:35",
            "epoch_date_close_approach": 1452789300000,
            "relative_velocity": {
                "kilometers_per_second": "13.5839450717",
                "kilometers_per_hour": "48902.2022580383",
                "miles_per_hour": "30385.926730835"
            },
            "miss_distance": {
                "astronomical": "0.0026080325",
                "lunar": "1.0145246425",
                "kilometers": "390156.106890775",
                "miles": "242431.763111695"
            },
            "orbiting_body": "Moon"
        },
        {
            "close_approach_date": "2017-12-28",
            "close_approach_date_full": "2017-Dec-28 00:28",
            "epoch_date_close_approach": 1514420880000,
            "relative_velocity": {
                "kilometers_per_second": "19.7469515195",
                "kilometers_per_hour": "71089.0254701438",
                "miles_per_hour": "44171.9558539347"
            },
            "miss_distance": {
                "astronomical": "0.2647641936",
                "lunar": "102.9932713104",
                "kilometers": "39608159.414827632",
                "miles": "24611369.0160280416"
            },
            "orbiting_body": "Earth"
        }
    ],
    "orbital_data": {
        "orbit_id": "3",
        "orbit_determination_date": "2017-04-06 08:29:13",
        "first_observation_date": "2016-01-14",
        "last_observation_date": "2016-01-14",
        "data_arc_in_days": null,
        "observations_used": 42,
        "orbit_uncertainty": "7",
        "minimum_orbit_intersection": ".000226406",
        "jupiter_tisserand_invariant": "4.283",
        "epoch_osculation": "2459000.5",
        "eccentricity": ".4609612217348007",
        "semi_major_axis": "1.56518114362092",
        "inclination": "10.17843839922285",
        "ascending_node_longitude": "293.654972916266",
        "orbital_period": "715.2293661471762",
        "perihelion_distance": ".8436933314211479",
        "perihelion_argument": "236.76434070",
        "aphelion_distance": "2.286668955820691",
        "perihelion_time": "2458873.548475913648",
        "mean_anomaly": "63.89915016672033",
        "mean_motion": ".5033350377365812",
        "equinox": "J2000",
        "orbit_class": {
            "orbit_class_type": "APO",
            "orbit_class_description": "Near-Earth asteroid orbits which cross the Earth’s orbit similar to that of 1862 Apollo",
            "orbit_class_range": "a (semi-major axis) > 1.0 AU; q (perihelion) < 1.017 AU"
        }
    },
    "is_sentry_object": false
}